[Satellite]
VERSION=1.1
NAME=FLOCK 1C-4
NICKNAME=FLOCK 1C-4
TLE1=1 40031U 14033X   18018.74739881  .00000490  00000-0  57993-4 0  9994
TLE2=2 40031  97.9199 296.0643 0013709 315.0579  44.9480 14.89027694194568
